CCSDS_OMM_VERS = 2.0
CREATION_DATE  = 
ORIGINATOR     = 

OBJECT_NAME    = STARLINK-36864
OBJECT_ID      = 2026-041F
CENTER_NAME    = EARTH
REF_FRAME      = TEME
TIME_SYSTEM    = UTC
MEAN_ELEMENT_THEORY = SGP/SGP4

EPOCH          = 2026-03-07T22:00:01.999584
MEAN_MOTION    = 15.97367481
ECCENTRICITY   = .000042
INCLINATION    = 53.1595
RA_OF_ASC_NODE = 71.3253
ARG_OF_PERICENTER = 96.8899
MEAN_ANOMALY   = 264.2464

EPHEMERIS_TYPE = 0
CLASSIFICATION_TYPE = U
NORAD_CAT_ID   = 68045
ELEMENT_SET_NO = 999
REV_AT_EPOCH   = 209
BSTAR          = -.31698E-2
MEAN_MOTION_DOT = -.1431389E-1
MEAN_MOTION_DDOT = .62001E-3

CCSDS_OMM_VERS = 2.0
CREATION_DATE  = 
ORIGINATOR     = 

OBJECT_NAME    = STARLINK-36321
OBJECT_ID      = 2026-041G
CENTER_NAME    = EARTH
REF_FRAME      = TEME
TIME_SYSTEM    = UTC
MEAN_ELEMENT_THEORY = SGP/SGP4

EPOCH          = 2026-03-07T22:00:01.999584
MEAN_MOTION    = 15.97732677
ECCENTRICITY   = .0000547
INCLINATION    = 53.1596
RA_OF_ASC_NODE = 71.3153
ARG_OF_PERICENTER = 88.8328
MEAN_ANOMALY   = 277.0258

EPHEMERIS_TYPE = 0
CLASSIFICATION_TYPE = U
NORAD_CAT_ID   = 68046
ELEMENT_SET_NO = 999
REV_AT_EPOCH   = 209
BSTAR          = -.30646E-2
MEAN_MOTION_DOT = -.1412422E-1
MEAN_MOTION_DDOT = .60739E-3

CCSDS_OMM_VERS = 2.0
CREATION_DATE  = 
ORIGINATOR     = 

OBJECT_NAME    = STARLINK-36181
OBJECT_ID      = 2026-041H
CENTER_NAME    = EARTH
REF_FRAME      = TEME
TIME_SYSTEM    = UTC
MEAN_ELEMENT_THEORY = SGP/SGP4

EPOCH          = 2026-03-07T22:00:01.999584
MEAN_MOTION    = 15.97603444
ECCENTRICITY   = .0000594
INCLINATION    = 53.1596
RA_OF_ASC_NODE = 71.3189
ARG_OF_PERICENTER = 84.7017
MEAN_ANOMALY   = 279.4860

EPHEMERIS_TYPE = 0
CLASSIFICATION_TYPE = U
NORAD_CAT_ID   = 68047
ELEMENT_SET_NO = 999
REV_AT_EPOCH   = 197
BSTAR          = -.30766E-2
MEAN_MOTION_DOT = -.1407865E-1
MEAN_MOTION_DDOT = .603E-3

CCSDS_OMM_VERS = 2.0
CREATION_DATE  = 
ORIGINATOR     = 

OBJECT_NAME    = STARLINK-36318
OBJECT_ID      = 2026-041J
CENTER_NAME    = EARTH
REF_FRAME      = TEME
TIME_SYSTEM    = UTC
MEAN_ELEMENT_THEORY = SGP/SGP4

EPOCH          = 2026-03-07T22:00:01.999584
MEAN_MOTION    = 15.97853069
ECCENTRICITY   = .0000409
INCLINATION    = 53.1595
RA_OF_ASC_NODE = 71.3123
ARG_OF_PERICENTER = 96.6430
MEAN_ANOMALY   = 270.7085

EPHEMERIS_TYPE = 0
CLASSIFICATION_TYPE = U
NORAD_CAT_ID   = 68048
ELEMENT_SET_NO = 999
REV_AT_EPOCH   = 209
BSTAR          = -.30263E-2
MEAN_MOTION_DOT = -.1404214E-1
MEAN_MOTION_DDOT = .60171E-3

CCSDS_OMM_VERS = 2.0
CREATION_DATE  = 
ORIGINATOR     = 

OBJECT_NAME    = STARLINK-36885
OBJECT_ID      = 2026-041K
CENTER_NAME    = EARTH
REF_FRAME      = TEME
TIME_SYSTEM    = UTC
MEAN_ELEMENT_THEORY = SGP/SGP4

EPOCH          = 2026-03-07T22:00:01.999584
MEAN_MOTION    = 15.98130310
ECCENTRICITY   = .0000542
INCLINATION    = 53.1594
RA_OF_ASC_NODE = 71.3048
ARG_OF_PERICENTER = 86.8278
MEAN_ANOMALY   = 284.0758

EPHEMERIS_TYPE = 0
CLASSIFICATION_TYPE = U
NORAD_CAT_ID   = 68049
ELEMENT_SET_NO = 999
REV_AT_EPOCH   = 209
BSTAR          = -.30124E-2
MEAN_MOTION_DOT = -.1419347E-1
MEAN_MOTION_DDOT = .61541E-3

CCSDS_OMM_VERS = 2.0
CREATION_DATE  = 
ORIGINATOR     = 

OBJECT_NAME    = STARLINK-36945
OBJECT_ID      = 2026-041L
CENTER_NAME    = EARTH
REF_FRAME      = TEME
TIME_SYSTEM    = UTC
MEAN_ELEMENT_THEORY = SGP/SGP4

EPOCH          = 2026-03-07T22:00:01.999584
MEAN_MOTION    = 15.97988113
ECCENTRICITY   = .0000414
INCLINATION    = 53.1594
RA_OF_ASC_NODE = 71.3084
ARG_OF_PERICENTER = 102.0819
MEAN_ANOMALY   = 267.0822

EPHEMERIS_TYPE = 0
CLASSIFICATION_TYPE = U
NORAD_CAT_ID   = 68050
ELEMENT_SET_NO = 999
REV_AT_EPOCH   = 209
BSTAR          = -.29977E-2
MEAN_MOTION_DOT = -.1401492E-1
MEAN_MOTION_DDOT = .60044E-3

CCSDS_OMM_VERS = 2.0
CREATION_DATE  = 
ORIGINATOR     = 

OBJECT_NAME    = STARLINK-35911
OBJECT_ID      = 2026-041M
CENTER_NAME    = EARTH
REF_FRAME      = TEME
TIME_SYSTEM    = UTC
MEAN_ELEMENT_THEORY = SGP/SGP4

EPOCH          = 2026-03-07T22:00:01.999584
MEAN_MOTION    = 15.98261061
ECCENTRICITY   = .0000388
INCLINATION    = 53.1595
RA_OF_ASC_NODE = 71.3011
ARG_OF_PERICENTER = 97.5682
MEAN_ANOMALY   = 275.1964

EPHEMERIS_TYPE = 0
CLASSIFICATION_TYPE = U
NORAD_CAT_ID   = 68051
ELEMENT_SET_NO = 999
REV_AT_EPOCH   = 205
BSTAR          = -.29503E-2
MEAN_MOTION_DOT = -.1400551E-1
MEAN_MOTION_DDOT = .60143E-3

CCSDS_OMM_VERS = 2.0
CREATION_DATE  = 
ORIGINATOR     = 

OBJECT_NAME    = STARLINK-35808
OBJECT_ID      = 2026-041N
CENTER_NAME    = EARTH
REF_FRAME      = TEME
TIME_SYSTEM    = UTC
MEAN_ELEMENT_THEORY = SGP/SGP4

EPOCH          = 2026-03-07T22:00:01.999584
MEAN_MOTION    = 15.98391657
ECCENTRICITY   = .0000456
INCLINATION    = 53.1592
RA_OF_ASC_NODE = 71.2974
ARG_OF_PERICENTER = 84.5008
MEAN_ANOMALY   = 289.8744

EPHEMERIS_TYPE = 0
CLASSIFICATION_TYPE = U
NORAD_CAT_ID   = 68052
ELEMENT_SET_NO = 999
REV_AT_EPOCH   = 205
BSTAR          = -.29453E-2
MEAN_MOTION_DOT = -.1408344E-1
MEAN_MOTION_DDOT = .6084E-3

CCSDS_OMM_VERS = 2.0
CREATION_DATE  = 
ORIGINATOR     = 

OBJECT_NAME    = STARLINK-36919
OBJECT_ID      = 2026-041P
CENTER_NAME    = EARTH
REF_FRAME      = TEME
TIME_SYSTEM    = UTC
MEAN_ELEMENT_THEORY = SGP/SGP4

EPOCH          = 2026-03-07T22:00:01.999584
MEAN_MOTION    = 15.98522410
ECCENTRICITY   = .0000487
INCLINATION    = 53.1593
RA_OF_ASC_NODE = 71.2939
ARG_OF_PERICENTER = 93.2958
MEAN_ANOMALY   = 282.8562

EPHEMERIS_TYPE = 0
CLASSIFICATION_TYPE = U
NORAD_CAT_ID   = 68053
ELEMENT_SET_NO = 999
REV_AT_EPOCH   = 209
BSTAR          = -.2917E-2
MEAN_MOTION_DOT = -.1405114E-1
MEAN_MOTION_DDOT = .60669E-3

CCSDS_OMM_VERS = 2.0
CREATION_DATE  = 
ORIGINATOR     = 

OBJECT_NAME    = STARLINK-36924
OBJECT_ID      = 2026-041Q
CENTER_NAME    = EARTH
REF_FRAME      = TEME
TIME_SYSTEM    = UTC
MEAN_ELEMENT_THEORY = SGP/SGP4

EPOCH          = 2026-03-07T22:00:01.999584
MEAN_MOTION    = 15.98765606
ECCENTRICITY   = .000049
INCLINATION    = 53.1592
RA_OF_ASC_NODE = 71.2878
ARG_OF_PERICENTER = 86.9863
MEAN_ANOMALY   = 292.2538

EPHEMERIS_TYPE = 0
CLASSIFICATION_TYPE = U
NORAD_CAT_ID   = 68054
ELEMENT_SET_NO = 999
REV_AT_EPOCH   = 209
BSTAR          = -.28715E-2
MEAN_MOTION_DOT = -.1402258E-1
MEAN_MOTION_DDOT = .606E-3

CCSDS_OMM_VERS = 2.0
CREATION_DATE  = 
ORIGINATOR     = 

OBJECT_NAME    = STARLINK-35998
OBJECT_ID      = 2026-041R
CENTER_NAME    = EARTH
REF_FRAME      = TEME
TIME_SYSTEM    = UTC
MEAN_ELEMENT_THEORY = SGP/SGP4

EPOCH          = 2026-03-07T22:00:01.999584
MEAN_MOTION    = 15.98642809
ECCENTRICITY   = .0000411
INCLINATION    = 53.1593
RA_OF_ASC_NODE = 71.2906
ARG_OF_PERICENTER = 91.6524
MEAN_ANOMALY   = 285.9726

EPHEMERIS_TYPE = 0
CLASSIFICATION_TYPE = U
NORAD_CAT_ID   = 68055
ELEMENT_SET_NO = 999
REV_AT_EPOCH   = 205
BSTAR          = -.28998E-2
MEAN_MOTION_DOT = -.1406267E-1
MEAN_MOTION_DDOT = .60838E-3

CCSDS_OMM_VERS = 2.0
CREATION_DATE  = 
ORIGINATOR     = 

OBJECT_NAME    = STARLINK-36845
OBJECT_ID      = 2026-041S
CENTER_NAME    = EARTH
REF_FRAME      = TEME
TIME_SYSTEM    = UTC
MEAN_ELEMENT_THEORY = SGP/SGP4

EPOCH          = 2026-03-07T22:00:01.999584
MEAN_MOTION    = 15.98883432
ECCENTRICITY   = .0000465
INCLINATION    = 53.1591
RA_OF_ASC_NODE = 71.2846
ARG_OF_PERICENTER = 91.3350
MEAN_ANOMALY   = 289.4675

EPHEMERIS_TYPE = 0
CLASSIFICATION_TYPE = U
NORAD_CAT_ID   = 68056
ELEMENT_SET_NO = 999
REV_AT_EPOCH   = 209
BSTAR          = -.2822E-2
MEAN_MOTION_DOT = -.1387452E-1
MEAN_MOTION_DDOT = .59511E-3

