STARLINK-36864          
1 68045U 26041F   26066.91668981 -.01431389  62001-3 -31698-2 0  9996
2 68045  53.1595  71.3253 0000420  96.8899 264.2464 15.97367481  2099
STARLINK-36321          
1 68046U 26041G   26066.91668981 -.01412422  60739-3 -30646-2 0  9992
2 68046  53.1596  71.3153 0000547  88.8328 277.0258 15.97732677  2094
STARLINK-36181          
1 68047U 26041H   26066.91668981 -.01407865  60300-3 -30766-2 0  9995
2 68047  53.1596  71.3189 0000594  84.7017 279.4860 15.97603444  1976
STARLINK-36318          
1 68048U 26041J   26066.91668981 -.01404214  60171-3 -30263-2 0  9999
2 68048  53.1595  71.3123 0000409  96.6430 270.7085 15.97853069  2097
STARLINK-36885          
1 68049U 26041K   26066.91668981 -.01419347  61541-3 -30124-2 0  9991
2 68049  53.1594  71.3048 0000542  86.8278 284.0758 15.98130310  2095
STARLINK-36945          
1 68050U 26041L   26066.91668981 -.01401492  60044-3 -29977-2 0  9996
2 68050  53.1594  71.3084 0000414 102.0819 267.0822 15.97988113  2091
STARLINK-35911          
1 68051U 26041M   26066.91668981 -.01400551  60143-3 -29503-2 0  9997
2 68051  53.1595  71.3011 0000388  97.5682 275.1964 15.98261061  2059
STARLINK-35808          
1 68052U 26041N   26066.91668981 -.01408344  60840-3 -29453-2 0  9994
2 68052  53.1592  71.2974 0000456  84.5008 289.8744 15.98391657  2051
STARLINK-36919          
1 68053U 26041P   26066.91668981 -.01405114  60669-3 -29170-2 0  9992
2 68053  53.1593  71.2939 0000487  93.2958 282.8562 15.98522410  2097
STARLINK-36924          
1 68054U 26041Q   26066.91668981 -.01402258  60600-3 -28715-2 0  9998
2 68054  53.1592  71.2878 0000490  86.9863 292.2538 15.98765606  2091
STARLINK-35998          
1 68055U 26041R   26066.91668981 -.01406267  60838-3 -28998-2 0  9999
2 68055  53.1593  71.2906 0000411  91.6524 285.9726 15.98642809  2058
STARLINK-36845          
1 68056U 26041S   26066.91668981 -.01387452  59511-3 -28220-2 0  9998
2 68056  53.1591  71.2846 0000465  91.3350 289.4675 15.98883432  2098
